IRIDIUM 116             
1 43072U 17083C   25059.13789858  .00000954  00000+0  33353-3 0  9992
2 43072  86.4036 160.1671 0002009  92.8233 267.3193 14.34224566376223
IRIDIUM 130             
1 43073U 17083D   25058.68758314  .00000295  00000+0  98188-4 0  9991
2 43073  86.4044 160.5836 0002175  90.2732 269.8713 14.34217271376107
IRIDIUM 151             
1 43074U 17083E   25058.52266738 -.00000484  00000+0 -17989-3 0  9990
2 43074  86.4039 160.4707 0001835  94.4619 265.6786 14.34222842376104
IRIDIUM 134             
1 43075U 17083F   25059.11887972  .00000063  00000+0  15327-4 0  9992
2 43075  86.4037 160.2236 0002240  91.2890 268.8563 14.34217925376154
IRIDIUM 137             
1 43076U 17083G   25058.57341517  .00000155  00000+0  48449-4 0  9995
2 43076  86.4039 160.5338 0001512  90.9640 269.1729 14.34217383376148
IRIDIUM 141             
1 43077U 17083H   25058.56707371  .00000243  00000+0  79785-4 0  9994
2 43077  86.4036 160.3946 0002423 103.1194 257.0272 14.34218852376143
IRIDIUM 153             
1 43078U 17083J   25058.65879016 -.00000004  00000+0 -83983-5 0  9994
2 43078  86.3987 128.8728 0002506 106.8831 253.2640 14.34217846377268
IRIDIUM 131             
1 43079U 17083K   25059.11253715  .00000097  00000+0  27752-4 0  9990
2 43079  86.4040 160.3211 0002069 102.9933 257.1494 14.34217248376155
